CCSDS_OMM_VERS = 2.0
CREATION_DATE  = 
ORIGINATOR     = 

OBJECT_NAME    = XRISM
OBJECT_ID      = 2023-137A
CENTER_NAME    = EARTH
REF_FRAME      = TEME
TIME_SYSTEM    = UTC
MEAN_ELEMENT_THEORY = SGP/SGP4

EPOCH          = 2026-03-25T13:18:38.034432
MEAN_MOTION    = 15.11676926
ECCENTRICITY   = .00079131
INCLINATION    = 31.0012
RA_OF_ASC_NODE = 181.0334
ARG_OF_PERICENTER = 199.2588
MEAN_ANOMALY   = 160.7752

EPHEMERIS_TYPE = 0
CLASSIFICATION_TYPE = U
NORAD_CAT_ID   = 57800
ELEMENT_SET_NO = 999
REV_AT_EPOCH   = 14019
BSTAR          = .31696793E-3
MEAN_MOTION_DOT = .5629E-4
MEAN_MOTION_DDOT = 0

CCSDS_OMM_VERS = 2.0
CREATION_DATE  = 
ORIGINATOR     = 

OBJECT_NAME    = ACS3
OBJECT_ID      = 2024-077B
CENTER_NAME    = EARTH
REF_FRAME      = TEME
TIME_SYSTEM    = UTC
MEAN_ELEMENT_THEORY = SGP/SGP4

EPOCH          = 2026-03-25T13:12:59.669568
MEAN_MOTION    = 13.90324412
ECCENTRICITY   = .00710682
INCLINATION    = 97.1985
RA_OF_ASC_NODE = 22.0981
ARG_OF_PERICENTER = 39.7528
MEAN_ANOMALY   = 320.8814

EPHEMERIS_TYPE = 0
CLASSIFICATION_TYPE = U
NORAD_CAT_ID   = 59588
ELEMENT_SET_NO = 999
REV_AT_EPOCH   = 9640
BSTAR          = .16130766E-1
MEAN_MOTION_DOT = .20432E-3
MEAN_MOTION_DDOT = 0

CCSDS_OMM_VERS = 2.0
CREATION_DATE  = 
ORIGINATOR     = 

OBJECT_NAME    = SZ-21 MODULE
OBJECT_ID      = 2025-246C
CENTER_NAME    = EARTH
REF_FRAME      = TEME
TIME_SYSTEM    = UTC
MEAN_ELEMENT_THEORY = SGP/SGP4

EPOCH          = 2026-03-25T09:52:53.814144
MEAN_MOTION    = 15.69739008
ECCENTRICITY   = .00010026
INCLINATION    = 41.4741
RA_OF_ASC_NODE = 106.4894
ARG_OF_PERICENTER = 208.3621
MEAN_ANOMALY   = 151.7166

EPHEMERIS_TYPE = 0
CLASSIFICATION_TYPE = U
NORAD_CAT_ID   = 66515
ELEMENT_SET_NO = 999
REV_AT_EPOCH   = 2054
BSTAR          = .28093455E-3
MEAN_MOTION_DOT = .3423E-3
MEAN_MOTION_DDOT = 0

