XRISM                   
1 57800U 23137A   26084.55460688  .00005629  00000+0  31697-3 0  9998
2 57800  31.0012 181.0334 0007913 199.2588 160.7752 15.11676926140198
ACS3                    
1 59588U 24077B   26084.55069062  .00020432  00000+0  16131-1 0  9991
2 59588  97.1985  22.0981 0071068  39.7528 320.8814 13.90324412 96408
SZ-21 MODULE            
1 66515U 25246C   26084.41173396  .00034230  00000+0  28093-3 0  9992
2 66515  41.4741 106.4894 0001002 208.3621 151.7166 15.69739008 20549
